CCSDS_OMM_VERS = 2.0
CREATION_DATE  = 
ORIGINATOR     = 

OBJECT_NAME    = ATLAS CENTAUR R/B
OBJECT_ID      = 1972-065B
CENTER_NAME    = EARTH
REF_FRAME      = TEME
TIME_SYSTEM    = UTC
MEAN_ELEMENT_THEORY = SGP/SGP4

EPOCH          = 2025-12-27T01:17:42.417888
MEAN_MOTION    = 14.77446607
ECCENTRICITY   = .0033297
INCLINATION    = 35.0025
RA_OF_ASC_NODE = 11.3468
ARG_OF_PERICENTER = 119.8251
MEAN_ANOMALY   = 240.5766

EPHEMERIS_TYPE = 0
CLASSIFICATION_TYPE = U
NORAD_CAT_ID   = 6155
ELEMENT_SET_NO = 999
REV_AT_EPOCH   = 83051
BSTAR          = .20098E-3
MEAN_MOTION_DOT = .1444E-4
MEAN_MOTION_DDOT = 0

CCSDS_OMM_VERS = 2.0
CREATION_DATE  = 
ORIGINATOR     = 

OBJECT_NAME    = SL-8 R/B
OBJECT_ID      = 1975-112B
CENTER_NAME    = EARTH
REF_FRAME      = TEME
TIME_SYSTEM    = UTC
MEAN_ELEMENT_THEORY = SGP/SGP4

EPOCH          = 2025-12-27T03:50:50.340768
MEAN_MOTION    = 14.38155136
ECCENTRICITY   = .0016701
INCLINATION    = 74.0597
RA_OF_ASC_NODE = 152.3330
ARG_OF_PERICENTER = 262.2649
MEAN_ANOMALY   = 97.6608

EPHEMERIS_TYPE = 0
CLASSIFICATION_TYPE = U
NORAD_CAT_ID   = 8459
ELEMENT_SET_NO = 999
REV_AT_EPOCH   = 62144
BSTAR          = .12611E-3
MEAN_MOTION_DOT = .357E-5
MEAN_MOTION_DDOT = 0

CCSDS_OMM_VERS = 2.0
CREATION_DATE  = 
ORIGINATOR     = 

OBJECT_NAME    = SL-3 R/B
OBJECT_ID      = 1977-057B
CENTER_NAME    = EARTH
REF_FRAME      = TEME
TIME_SYSTEM    = UTC
MEAN_ELEMENT_THEORY = SGP/SGP4

EPOCH          = 2025-12-27T03:38:43.143072
MEAN_MOTION    = 15.43298276
ECCENTRICITY   = .0007451
INCLINATION    = 97.5693
RA_OF_ASC_NODE = 165.0449
ARG_OF_PERICENTER = 175.9325
MEAN_ANOMALY   = 184.1984

EPHEMERIS_TYPE = 0
CLASSIFICATION_TYPE = U
NORAD_CAT_ID   = 10114
ELEMENT_SET_NO = 999
REV_AT_EPOCH   = 65713
BSTAR          = .33197E-3
MEAN_MOTION_DOT = .14709E-3
MEAN_MOTION_DDOT = 0

CCSDS_OMM_VERS = 2.0
CREATION_DATE  = 
ORIGINATOR     = 

OBJECT_NAME    = SEASAT 1
OBJECT_ID      = 1978-064A
CENTER_NAME    = EARTH
REF_FRAME      = TEME
TIME_SYSTEM    = UTC
MEAN_ELEMENT_THEORY = SGP/SGP4

EPOCH          = 2025-12-26T20:43:25.173984
MEAN_MOTION    = 14.46076402
ECCENTRICITY   = .00013038
INCLINATION    = 108.0140
RA_OF_ASC_NODE = 332.6667
ARG_OF_PERICENTER = 256.8400
MEAN_ANOMALY   = 103.2600

EPHEMERIS_TYPE = 0
CLASSIFICATION_TYPE = U
NORAD_CAT_ID   = 10967
ELEMENT_SET_NO = 999
REV_AT_EPOCH   = 49598
BSTAR          = .15701348E-3
MEAN_MOTION_DOT = .423E-5
MEAN_MOTION_DDOT = 0

CCSDS_OMM_VERS = 2.0
CREATION_DATE  = 
ORIGINATOR     = 

OBJECT_NAME    = SL-14 R/B
OBJECT_ID      = 1979-011B
CENTER_NAME    = EARTH
REF_FRAME      = TEME
TIME_SYSTEM    = UTC
MEAN_ELEMENT_THEORY = SGP/SGP4

EPOCH          = 2025-12-26T22:35:03.596640
MEAN_MOTION    = 14.91787705
ECCENTRICITY   = .0014831
INCLINATION    = 82.5235
RA_OF_ASC_NODE = 165.5751
ARG_OF_PERICENTER = 303.7557
MEAN_ANOMALY   = 56.2249

EPHEMERIS_TYPE = 0
CLASSIFICATION_TYPE = U
NORAD_CAT_ID   = 11267
ELEMENT_SET_NO = 999
REV_AT_EPOCH   = 51793
BSTAR          = .75677E-4
MEAN_MOTION_DOT = .789E-5
MEAN_MOTION_DDOT = 0

CCSDS_OMM_VERS = 2.0
CREATION_DATE  = 
ORIGINATOR     = 

OBJECT_NAME    = SL-8 R/B
OBJECT_ID      = 1979-089B
CENTER_NAME    = EARTH
REF_FRAME      = TEME
TIME_SYSTEM    = UTC
MEAN_ELEMENT_THEORY = SGP/SGP4

EPOCH          = 2025-12-27T01:20:01.151232
MEAN_MOTION    = 14.42292560
ECCENTRICITY   = .0014773
INCLINATION    = 74.0672
RA_OF_ASC_NODE = 225.4836
ARG_OF_PERICENTER = 53.9638
MEAN_ANOMALY   = 306.2885

EPHEMERIS_TYPE = 0
CLASSIFICATION_TYPE = U
NORAD_CAT_ID   = 11574
ELEMENT_SET_NO = 999
REV_AT_EPOCH   = 42563
BSTAR          = .92127E-4
MEAN_MOTION_DOT = .278E-5
MEAN_MOTION_DDOT = 0

CCSDS_OMM_VERS = 2.0
CREATION_DATE  = 
ORIGINATOR     = 

OBJECT_NAME    = SL-14 R/B
OBJECT_ID      = 1980-005B
CENTER_NAME    = EARTH
REF_FRAME      = TEME
TIME_SYSTEM    = UTC
MEAN_ELEMENT_THEORY = SGP/SGP4

EPOCH          = 2025-12-27T02:35:03.281568
MEAN_MOTION    = 14.90808655
ECCENTRICITY   = .0016991
INCLINATION    = 82.5138
RA_OF_ASC_NODE = 16.0713
ARG_OF_PERICENTER = 49.6047
MEAN_ANOMALY   = 310.6651

EPHEMERIS_TYPE = 0
CLASSIFICATION_TYPE = U
NORAD_CAT_ID   = 11672
ELEMENT_SET_NO = 999
REV_AT_EPOCH   = 46567
BSTAR          = .69427E-4
MEAN_MOTION_DOT = .71E-5
MEAN_MOTION_DDOT = 0

CCSDS_OMM_VERS = 2.0
CREATION_DATE  = 
ORIGINATOR     = 

OBJECT_NAME    = SL-8 R/B
OBJECT_ID      = 1981-003B
CENTER_NAME    = EARTH
REF_FRAME      = TEME
TIME_SYSTEM    = UTC
MEAN_ELEMENT_THEORY = SGP/SGP4

EPOCH          = 2025-12-27T00:16:12.889056
MEAN_MOTION    = 15.07479373
ECCENTRICITY   = .0277371
INCLINATION    = 82.9353
RA_OF_ASC_NODE = 357.0709
ARG_OF_PERICENTER = 71.2608
MEAN_ANOMALY   = 291.8501

EPHEMERIS_TYPE = 0
CLASSIFICATION_TYPE = U
NORAD_CAT_ID   = 12139
ELEMENT_SET_NO = 999
REV_AT_EPOCH   = 30371
BSTAR          = .55804E-3
MEAN_MOTION_DOT = .21095E-3
MEAN_MOTION_DDOT = 0

CCSDS_OMM_VERS = 2.0
CREATION_DATE  = 
ORIGINATOR     = 

OBJECT_NAME    = SL-3 R/B
OBJECT_ID      = 1981-046B
CENTER_NAME    = EARTH
REF_FRAME      = TEME
TIME_SYSTEM    = UTC
MEAN_ELEMENT_THEORY = SGP/SGP4

EPOCH          = 2025-12-27T02:54:43.509888
MEAN_MOTION    = 15.39909352
ECCENTRICITY   = .0018058
INCLINATION    = 81.2325
RA_OF_ASC_NODE = 16.7288
ARG_OF_PERICENTER = 271.6101
MEAN_ANOMALY   = 88.3072

EPHEMERIS_TYPE = 0
CLASSIFICATION_TYPE = U
NORAD_CAT_ID   = 12465
ELEMENT_SET_NO = 999
REV_AT_EPOCH   = 42725
BSTAR          = .33128E-3
MEAN_MOTION_DOT = .13286E-3
MEAN_MOTION_DDOT = 0

CCSDS_OMM_VERS = 2.0
CREATION_DATE  = 
ORIGINATOR     = 

OBJECT_NAME    = SL-3 R/B
OBJECT_ID      = 1981-103B
CENTER_NAME    = EARTH
REF_FRAME      = TEME
TIME_SYSTEM    = UTC
MEAN_ELEMENT_THEORY = SGP/SGP4

EPOCH          = 2025-12-27T03:21:05.231232
MEAN_MOTION    = 15.20404024
ECCENTRICITY   = .001293
INCLINATION    = 81.1597
RA_OF_ASC_NODE = 298.4881
ARG_OF_PERICENTER = 162.4433
MEAN_ANOMALY   = 197.7248

EPHEMERIS_TYPE = 0
CLASSIFICATION_TYPE = U
NORAD_CAT_ID   = 12904
ELEMENT_SET_NO = 999
REV_AT_EPOCH   = 96220
BSTAR          = .31119E-3
MEAN_MOTION_DOT = .682E-4
MEAN_MOTION_DDOT = 0

CCSDS_OMM_VERS = 2.0
CREATION_DATE  = 
ORIGINATOR     = 

OBJECT_NAME    = SL-3 R/B
OBJECT_ID      = 1982-013B
CENTER_NAME    = EARTH
REF_FRAME      = TEME
TIME_SYSTEM    = UTC
MEAN_ELEMENT_THEORY = SGP/SGP4

EPOCH          = 2025-12-27T04:20:27.593952
MEAN_MOTION    = 15.21211944
ECCENTRICITY   = .0024083
INCLINATION    = 81.1738
RA_OF_ASC_NODE = 245.7055
ARG_OF_PERICENTER = 64.7379
MEAN_ANOMALY   = 295.6344

EPHEMERIS_TYPE = 0
CLASSIFICATION_TYPE = U
NORAD_CAT_ID   = 13068
ELEMENT_SET_NO = 999
REV_AT_EPOCH   = 39332
BSTAR          = .22803E-3
MEAN_MOTION_DOT = .5152E-4
MEAN_MOTION_DDOT = 0

CCSDS_OMM_VERS = 2.0
CREATION_DATE  = 
ORIGINATOR     = 

OBJECT_NAME    = SL-3 R/B
OBJECT_ID      = 1982-039B
CENTER_NAME    = EARTH
REF_FRAME      = TEME
TIME_SYSTEM    = UTC
MEAN_ELEMENT_THEORY = SGP/SGP4

EPOCH          = 2025-12-27T02:08:42.266976
MEAN_MOTION    = 15.09608749
ECCENTRICITY   = .0029432
INCLINATION    = 81.1707
RA_OF_ASC_NODE = 299.5877
ARG_OF_PERICENTER = 203.4636
MEAN_ANOMALY   = 156.5249

EPHEMERIS_TYPE = 0
CLASSIFICATION_TYPE = U
NORAD_CAT_ID   = 13154
ELEMENT_SET_NO = 999
REV_AT_EPOCH   = 37068
BSTAR          = .22201E-3
MEAN_MOTION_DOT = .3626E-4
MEAN_MOTION_DDOT = 0

