ATLAS CENTAUR R/B       
1 06155U 72065B   25361.05396317  .00001444  00000+0  20098-3 0  9992
2 06155  35.0025  11.3468 0033297 119.8251 240.5766 14.77446607830511
SL-8 R/B                
1 08459U 75112B   25361.16030487  .00000357  00000+0  12611-3 0  9996
2 08459  74.0597 152.3330 0016701 262.2649  97.6608 14.38155136621443
SL-3 R/B                
1 10114U 77057B   25361.15188823  .00014709  00000+0  33197-3 0  9992
2 10114  97.5693 165.0449 0007451 175.9325 184.1984 15.43298276657130
SEASAT 1                
1 10967U 78064A   25360.86348581  .00000423  00000+0  15701-3 0  9992
2 10967 108.0140 332.6667 0001303 256.8400 103.2600 14.46076402495985
SL-14 R/B               
1 11267U 79011B   25360.94101385  .00000789  00000+0  75677-4 0  9991
2 11267  82.5235 165.5751 0014831 303.7557  56.2249 14.91787705517933
SL-8 R/B                
1 11574U 79089B   25361.05556888  .00000278  00000+0  92127-4 0  9994
2 11574  74.0672 225.4836 0014773  53.9638 306.2885 14.42292560425639
SL-14 R/B               
1 11672U 80005B   25361.10767687  .00000710  00000+0  69427-4 0  9998
2 11672  82.5138  16.0713 0016991  49.6047 310.6651 14.90808655465676
SL-8 R/B                
1 12139U 81003B   25361.01126029  .00021095  00000+0  55804-3 0  9997
2 12139  82.9353 357.0709 0277371  71.2608 291.8501 15.07479373303716
SL-3 R/B                
1 12465U 81046B   25361.12133692  .00013286  00000+0  33128-3 0  9990
2 12465  81.2325  16.7288 0018058 271.6101  88.3072 15.39909352427257
SL-3 R/B                
1 12904U 81103B   25361.13964388  .00006820  00000+0  31119-3 0  9991
2 12904  81.1597 298.4881 0012930 162.4433 197.7248 15.20404024962206
SL-3 R/B                
1 13068U 82013B   25361.18087493  .00005152  00000+0  22803-3 0  9999
2 13068  81.1738 245.7055 0024083  64.7379 295.6344 15.21211944393322
SL-3 R/B                
1 13154U 82039B   25361.08937809  .00003626  00000+0  22201-3 0  9993
2 13154  81.1707 299.5877 0029432 203.4636 156.5249 15.09608749370686
